,District Name,Coordinates,address,url,latitude,longitude
0,الرياض- حي الرمال,"24.8493607, 46.786046","7138 أبي الحسن الرشيدي، حي الرمال، RURC2899، 2899, Riyadh 13256","https://www.google.com/maps/place/%D8%A7%D9%84%D8%B1%D9%8A%D8%A7%D8%B6-+%D8%AD%D9%8A+%D8%A7%D9%84%D8%B1%D9%85%D8%A7%D9%84%E2%80%AD/@24.8493607,46.786046,21z/data=!4m10!1m2!2m1!1zINit2Yog2KfZhNix2YXYp9mEICwgUml5YWRo!3m6!1s0x3e2eff32f60fb755:0x9a696dba68f6f603!8m2!3d24.8493607!4d46.7863437!15sChrYrdmKINin2YTYsdmF2KfZhCAsIFJpeWFkaJIBEmFwYXJ0bWVudF9idWlsZGluZ-ABAA!16s%2Fg%2F11sk15h1b7?entry=ttu",24.8493607,46.786046
2,Al Munsiyah,"24.8317156, 46.7474946",0,"https://www.google.com/maps/place/Al+Munsiyah,+Riyadh/@24.8317156,46.7474946,14z/data=!3m1!4b1!4m6!3m5!1s0x3e2efeeb3e4c5905:0x5c3160d670804658!8m2!3d24.8316931!4d46.7677283!16s%2Fg%2F1thmcwls?entry=ttu",24.8317156,46.7474946
3,حي قرطبة,"24.817733, 46.7357229","RP9P+3CR, Qurtubah, Riyadh 13245","https://www.google.com/maps/place/%D8%AD%D9%8A+%D9%82%D8%B1%D8%B7%D8%A8%D8%A9%E2%80%AD/@24.817733,46.7357229,21z/data=!4m10!1m2!2m1!1zINit2Yog2YLYsdi32KjYqSAsIFJpeWFkaA!3m6!1s0x3e2efd23253f8579:0x37c1df16295da287!8m2!3d24.817733!4d46.7360206!15sChjYrdmKINmC2LHYt9io2KkgLCBSaXlhZGhaGCIW2K3ZiiDZgtix2LfYqNipIHJpeWFkaJIBFnRyYW5zcG9ydGF0aW9uX3NlcnZpY2WaASNDaFpEU1VoTk1HOW5TMFZKUTBGblNVTXhOblZtYkZabkVBReABAA!16s%2Fg%2F11svx1ds3f?entry=ttu",24.817733,46.7357229
4,حي البيان,"24.8860065, 46.8684018","VVP9+CF4 حي, ابن الجزري، Ash Sharq, Riyadh 13618","https://www.google.com/maps/place/%D8%AD%D9%8A+%D8%A7%D9%84%D8%A8%D9%8A%D8%A7%D9%86%E2%80%AD/@24.8860065,46.8684018,21z/data=!4m10!1m2!2m1!1zINit2Yog2KfZhNio2YrYp9mGICwgUml5YWRo!3m6!1s0x3e2e558df41a3a45:0x174925bba8a6203f!8m2!3d24.8860065!4d46.8686995!15sChrYrdmKINin2YTYqNmK2KfZhiAsIFJpeWFkaJIBE2hvdXNpbmdfZGV2ZWxvcG1lbnTgAQA!16s%2Fg%2F11qghxgdks?entry=ttu",24.8860065,46.8684018
6,حي المرجان الرياض,"24.92461, 46.8652094",0,"https://www.google.com/maps/place/%D8%AD%D9%8A+%D8%A7%D9%84%D9%85%D8%B1%D8%AC%D8%A7%D9%86+%D8%A7%D9%84%D8%B1%D9%8A%D8%A7%D8%B6%E2%80%AD/@24.92461,46.8652094,17z/data=!3m1!4b1!4m6!3m5!1s0x3e2e57a2b81219c7:0x37138dcfce83aec7!8m2!3d24.92461!4d46.8677843!16s%2Fg%2F11s7rb_jdc?entry=ttu",24.92461,46.8652094
8,حي الوسام (مدينة المستقبل),"24.911, 46.9134251",0,"https://www.google.com/maps/place/%D8%AD%D9%8A+%D8%A7%D9%84%D9%88%D8%B3%D8%A7%D9%85+(%D9%85%D8%AF%D9%8A%D9%86%D8%A9+%D8%A7%D9%84%D9%85%D8%B3%D8%AA%D9%82%D8%A8%D9%84)%E2%80%AD/@24.911,46.9134251,17z/data=!3m1!4b1!4m6!3m5!1s0x3e2e51c44448bd4b:0x95014bb3481f1c78!8m2!3d24.911!4d46.916!16s%2Fg%2F11t1h3wg96?entry=ttu",24.911,46.9134251
10,حي السحاب الرياض,"24.9545446, 46.9874569",0,"https://www.google.com/maps/place/%D8%AD%D9%8A+%D8%A7%D9%84%D8%B3%D8%AD%D8%A7%D8%A8+%D8%A7%D9%84%D8%B1%D9%8A%D8%A7%D8%B6%E2%80%AD/@24.9545446,46.9874569,17z/data=!3m1!4b1!4m6!3m5!1s0x3e2e4f4963fefc0f:0xa2bf95127dd3cb5a!8m2!3d24.9545446!4d46.9900318!16s%2Fg%2F11tcxlttwc?entry=ttu",24.9545446,46.9874569
11,حي المشرق الرياض,"24.9575603, 47.0276342","X25H+25, Ash Sharq, Riyadh 13811","https://www.google.com/maps/place/%D8%AD%D9%8A+%D8%A7%D9%84%D9%85%D8%B4%D8%B1%D9%82+%D8%A7%D9%84%D8%B1%D9%8A%D8%A7%D8%B6%E2%80%AD/@24.9575603,47.0276342,21z/data=!4m10!1m2!2m1!1zINit2Yog2KfZhNmF2LTYsdmCICwgUml5YWRo!3m6!1s0x3e2e4fd05c052235:0x81f8931f19b2d828!8m2!3d24.9575603!4d47.0279319!15sChrYrdmKINin2YTZhdi02LHZgiAsIFJpeWFkaJIBEWFwYXJ0bWVudF9jb21wbGV44AEA!16s%2Fg%2F11tff8mlmz?entry=ttu",24.9575603,47.0276342
13,حي الزاهر الرياض,"24.9973589, 47.0403346",0,"https://www.google.com/maps/place/%D8%AD%D9%8A+%D8%A7%D9%84%D8%B2%D8%A7%D9%87%D8%B1+%D8%A7%D9%84%D8%B1%D9%8A%D8%A7%D8%B6%E2%80%AD/@24.9973589,47.0403346,17z/data=!3m1!4b1!4m6!3m5!1s0x3e2e4f3fc77250bf:0xb625d1371be960a8!8m2!3d24.9973589!4d47.0429095!16s%2Fg%2F11tcxm1fnt?entry=ttu",24.9973589,47.0403346
15,حي التضامن الرياض,"25.0223312, 47.0349343",0,"https://www.google.com/maps/place/%D8%AD%D9%8A+%D8%A7%D9%84%D8%AA%D8%B6%D8%A7%D9%85%D9%86+%D8%A7%D9%84%D8%B1%D9%8A%D8%A7%D8%B6%E2%80%AD/@25.0223312,47.0349343,17z/data=!3m1!4b1!4m6!3m5!1s0x3e2e4fd6ae078c8d:0xd64ee0ac62110520!8m2!3d25.0223312!4d47.0375092!16s%2Fg%2F11s7rcd_94?entry=ttu",25.0223312,47.0349343
17,حي الشعلة الرياض,"25.0070577, 47.0506902",0,"https://www.google.com/maps/place/%D8%AD%D9%8A+%D8%A7%D9%84%D8%B4%D8%B9%D9%84%D8%A9+%D8%A7%D9%84%D8%B1%D9%8A%D8%A7%D8%B6%E2%80%AD/@25.0070577,47.0506902,17z/data=!3m1!4b1!4m6!3m5!1s0x3e2e4f2e38039111:0x3b1fb837ce8e9f2a!8m2!3d25.0070577!4d47.0532651!16s%2Fg%2F11tcxm5yqk?entry=ttu",25.0070577,47.0506902
19,Al Olaya,"24.6923948, 46.6629288",0,"https://www.google.com/maps/place/Al+Olaya,+Riyadh/@24.6923948,46.6629288,14z/data=!3m1!4b1!4m6!3m5!1s0x3e2f033bb824b417:0xdc9745cc4a78b2d2!8m2!3d24.695087!4d46.6806472!16s%2Fm%2F02x6g2f?entry=ttu",24.6923948,46.6629288
20,Flowers Garden,"24.7321475, 46.6505735","PMJ2+V85, Al Takhassousi, Al Mohammadiyyah, Riyadh 12363","https://www.google.com/maps/place/Flowers+Garden/@24.7321475,46.6505735,21z/data=!4m10!1m2!2m1!1zINit2Yog2KfZhNiy2YfZiNixICwgUml5YWRo!3m6!1s0x3e2f1da39343635f:0xf11494b0eed5c2fa!8m2!3d24.7321475!4d46.6508712!15sChrYrdmKINin2YTYstmH2YjYsSAsIFJpeWFkaFoaIhjYrdmKINin2YTYstmH2YjYsSByaXlhZGiSAQRwYXJrmgEkQ2hkRFNVaE5NRzluUzBWSlEwRm5TVVJEYkRsaWJqSlJSUkFC4AEA!16s%2Fg%2F11f6cqsz8p?entry=ttu",24.7321475,46.6505735
22,حي الراية الرياض,"24.9938862, 47.0767265",0,"https://www.google.com/maps/place/%D8%AD%D9%8A+%D8%A7%D9%84%D8%B1%D8%A7%D9%8A%D8%A9+%D8%A7%D9%84%D8%B1%D9%8A%D8%A7%D8%B6%E2%80%AD/@24.9938862,47.0767265,17z/data=!3m1!4b1!4m6!3m5!1s0x3e2e49229fceb797:0x6e43d87bc64d070f!8m2!3d24.9938862!4d47.0793014!16s%2Fg%2F11tff8g54m?entry=ttu",24.9938862,47.0767265
24,حي الفرسان الرياض,"24.9798438, 47.0785953",0,"https://www.google.com/maps/place/%D8%AD%D9%8A+%D8%A7%D9%84%D9%81%D8%B1%D8%B3%D8%A7%D9%86+%D8%A7%D9%84%D8%B1%D9%8A%D8%A7%D8%B6%E2%80%AD/@24.9798438,47.0785953,17z/data=!3m1!4b1!4m6!3m5!1s0x3e2e49ecff0dbf41:0x9b54a0370eea64a!8m2!3d24.9798438!4d47.0811702!16s%2Fg%2F11tff925d_?entry=ttu",24.9798438,47.0785953
26,حي الدانة الرياض,"25.0115162, 47.0872988",0,"https://www.google.com/maps/place/%D8%AD%D9%8A+%D8%A7%D9%84%D8%AF%D8%A7%D9%86%D8%A9+%D8%A7%D9%84%D8%B1%D9%8A%D8%A7%D8%B6%E2%80%AD/@25.0115162,47.0872988,17z/data=!3m1!4b1!4m6!3m5!1s0x3e2e493510ad6c5b:0xa9bac8a7c5bde880!8m2!3d25.0115162!4d47.0898737!16s%2Fg%2F11tff8tfc1?entry=ttu",25.0115162,47.0872988
28,حي الرسالة الرياض,"25.000373, 47.0903353",0,"https://www.google.com/maps/place/%D8%AD%D9%8A+%D8%A7%D9%84%D8%B1%D8%B3%D8%A7%D9%84%D8%A9+%D8%A7%D9%84%D8%B1%D9%8A%D8%A7%D8%B6%E2%80%AD/@25.000373,47.0903353,17z/data=!3m1!4b1!4m6!3m5!1s0x3e2e49171d4f3f39:0x30bfc3dfcf2745c2!8m2!3d25.000373!4d47.0929102!16s%2Fg%2F11s7rc4_bb?entry=ttu",25.000373,47.0903353
30,حي الرسالة الرياض,"25.000373, 47.0922665",0,"https://www.google.com/maps/place/%D8%AD%D9%8A+%D8%A7%D9%84%D8%B1%D8%B3%D8%A7%D9%84%D8%A9+%D8%A7%D9%84%D8%B1%D9%8A%D8%A7%D8%B6%E2%80%AD/@25.000373,47.0922665,19z/data=!3m1!4b1!4m6!3m5!1s0x3e2e49171d4f3f39:0x30bfc3dfcf2745c2!8m2!3d25.000373!4d47.0929102!16s%2Fg%2F11s7rc4_bb?entry=ttu",25.000373,47.0922665
32,Ar Rihab,"24.7822653, 46.553994",0,"https://www.google.com/maps/place/Ar+Rihab,+Diriyah/@24.7822653,46.553994,15z/data=!3m1!4b1!4m6!3m5!1s0x3e2ee6d29de986dd:0x50688efc3fe9f670!8m2!3d24.7870816!4d46.5620116!16s%2Fg%2F11b6bbhj6z?entry=ttu",24.7822653,46.553994
33,المجد,"24.7500152, 46.5733902","مبني تواصل النخبة للإتصالات، طريق الملك عبدالعزيز، حي الفيصلية, At Tarif Al Jadid، محل 28, Riyadh 13712","https://www.google.com/maps/place/%D8%A7%D9%84%D9%85%D8%AC%D8%AF%E2%80%AD/@24.7500152,46.5733902,21z/data=!4m10!1m2!2m1!1zINit2Yog2KfZhNmF2KzYryAsIFJpeWFkaA!3m6!1s0x3e2ee10b4ebfd97f:0xdeee991e9f86b576!8m2!3d24.7500152!4d46.5736879!15sChjYrdmKINin2YTZhdis2K8gLCBSaXlhZGhaGCIW2K3ZiiDYp9mE2YXYrNivIHJpeWFkaJIBEGNlbGxfcGhvbmVfc3RvcmXgAQA!16s%2Fg%2F11g00xyqb4?entry=ttu",24.7500152,46.5733902
34,حي الملك فهد :عماير النخبه,"24.7496751, 46.6691477",3090 نخيلان، 8267، الملك فهد، الرياض 12274،,"https://www.google.com/maps/place/%D8%AD%D9%8A+%D8%A7%D9%84%D9%85%D9%84%D9%83+%D9%81%D9%87%D8%AF+:%D8%B9%D9%85%D8%A7%D9%8A%D8%B1+%D8%A7%D9%84%D9%86%D8%AE%D8%A8%D9%87%E2%80%AD/@24.7496751,46.6691477,21z/data=!4m10!1m2!2m1!1zINit2Yog2KfZhNmG2K7YqNipICwgUml5YWRo!3m6!1s0x3e2ee31583c2db61:0x4253dffdefa84755!8m2!3d24.7496751!4d46.6694454!15sChrYrdmKINin2YTZhtiu2KjYqSAsIFJpeWFkaJIBEmFwYXJ0bWVudF9idWlsZGluZ-ABAA!16s%2Fg%2F11tfyzqcnr?entry=ttu",24.7496751,46.6691477
36,Ash Shuhada,"24.7882142, 46.7252289",0,"https://www.google.com/maps/place/Ash+Shuhada,+Ghirnatah,+Riyadh/@24.7882142,46.7252289,15z/data=!3m1!4b1!4m6!3m5!1s0x3e2efdc3a43326cd:0x1208e72a60d029c!8m2!3d24.7879698!4d46.7368914!16s%2Fg%2F1tf0642m?entry=ttu",24.7882142,46.7252289
38,Ghirnatah,"24.7920141, 46.723755",0,"https://www.google.com/maps/place/Ghirnatah,+Riyadh/@24.7920141,46.723755,14z/data=!3m1!4b1!4m6!3m5!1s0x3e2efddec1d2908b:0x5a8fbe134285f3a1!8m2!3d24.7927017!4d46.7439972!16s%2Fg%2F1v9tyck9?entry=ttu",24.7920141,46.723755
40,Al Yarmuk,"24.8079578, 46.7630003",0,"https://www.google.com/maps/place/Al+Yarmuk,+Riyadh/@24.8079578,46.7630003,14z/data=!3m1!4b1!4m6!3m5!1s0x3e2efe4c65979c5f:0x35305b893657f4eb!8m2!3d24.8078798!4d46.7797933!16s%2Fg%2F1td4n50n?entry=ttu",24.8079578,46.7630003
42,Al Nadwa,"24.8003229, 46.8535166",0,"https://www.google.com/maps/place/Al+Nadwa,+Riyadh/@24.8003229,46.8535166,13z/data=!3m1!4b1!4m6!3m5!1s0x3e2fab170fbd57bd:0x8eba692b68ef1286!8m2!3d24.8033292!4d46.894362!16s%2Fg%2F1ptvt8h9t?entry=ttu",24.8003229,46.8535166
44,Al Hamra,"24.7756038, 46.7329829",0,"https://www.google.com/maps/place/Al+Hamra,+Riyadh/@24.7756038,46.7329829,14z/data=!3m1!4b1!4m6!3m5!1s0x3e2efe03c5c74059:0x32577608b4d6e9d2!8m2!3d24.778346!4d46.7614326!16s%2Fg%2F11c6d_glhh?entry=ttu",24.7756038,46.7329829
46,Ishbiliyah,"24.7928832, 46.7716409",0,"https://www.google.com/maps/place/Ishbiliyah,+Riyadh/@24.7928832,46.7716409,14z/data=!3m1!4b1!4m6!3m5!1s0x3e2effd16e4395fd:0xc36b47278526459c!8m2!3d24.795665!4d46.7979445!16s%2Fg%2F1tg146bv?entry=ttu",24.7928832,46.7716409
48,Jerusalem,"24.7539725, 46.7338537",0,"https://www.google.com/maps/place/Jerusalem,+Riyadh+13214/@24.7539725,46.7338537,14z/data=!3m1!4b1!4m6!3m5!1s0x3e2f01f3325673d7:0x127a79742d6ce79!8m2!3d24.7572297!4d46.7527165!16s%2Fg%2F1v93zjz_?entry=ttu",24.7539725,46.7338537
50,King Faisal Dt.,"24.7617713, 46.7541285",0,"https://www.google.com/maps/place/King+Faisal+Dt.,+Riyadh/@24.7617713,46.7541285,14z/data=!3m1!4b1!4m6!3m5!1s0x3e2f01c79c443fb7:0x50b09b0c5c5895b2!8m2!3d24.7620265!4d46.7737151!16s%2Fg%2F1tnhwtg5?entry=ttu",24.7617713,46.7541285
52,Alandalus,"24.4681475, 46.2751652",0,"https://www.google.com/maps/place/Alandalus,+Al-Muzahmiya+19655/@24.4681475,46.2751652,16z/data=!3m1!4b1!4m6!3m5!1s0x3e2f2de73fda34e3:0x9cd19c9fcd12f8b!8m2!3d24.4681487!4d46.2810439!16s%2Fg%2F1q648vptj?entry=ttu",24.4681475,46.2751652
54,Al Maizilah,"24.7918029, 46.7965327",0,"https://www.google.com/maps/place/Al+Maizilah,+Riyadh/@24.7918029,46.7965327,13z/data=!3m1!4b1!4m6!3m5!1s0x3e2faaba5c7b81c7:0xb21a8232007ec502!8m2!3d24.7934171!4d46.8502929!16s%2Fg%2F11btwptmy9?entry=ttu",24.7918029,46.7965327
56,Al Nadwa,"24.8003229, 46.8535166",0,"https://www.google.com/maps/place/Al+Nadwa,+Riyadh/@24.8003229,46.8535166,13z/data=!3m1!4b1!4m6!3m5!1s0x3e2fab170fbd57bd:0x8eba692b68ef1286!8m2!3d24.8033292!4d46.894362!16s%2Fg%2F1ptvt8h9t?entry=ttu",24.8003229,46.8535166
58,Ar Rabwah,"24.6937822, 46.7341259",0,"https://www.google.com/maps/place/Ar+Rabwah,+Riyadh/@24.6937822,46.7341259,14z/data=!3m1!4b1!4m6!3m5!1s0x3e2f06ac5a13f387:0x5f47c5a7841222a5!8m2!3d24.6915715!4d46.7639686!16s%2Fg%2F1tywwf8_?entry=ttu",24.6937822,46.7341259
60,Al Manar,"24.7253319, 46.7766591",0,"https://www.google.com/maps/place/Al+Manar,+Riyadh/@24.7253319,46.7766591,14z/data=!3m1!4b1!4m6!3m5!1s0x3e2f00c4bc60ee31:0xa289c35f10ae17d9!8m2!3d24.7255028!4d46.796205!16s%2Fg%2F11dxfbjkhs?entry=ttu",24.7253319,46.7766591
62,An Nasim Al Gharbi,"24.7256613, 46.7827674",0,"https://www.google.com/maps/place/An+Nasim+Al+Gharbi,+Riyadh/@24.7256613,46.7827674,13z/data=!3m1!4b1!4m6!3m5!1s0x3e2f00aa22386807:0x31730210cae750c5!8m2!3d24.7235642!4d46.8285887!16s%2Fg%2F1v7tjvc0?entry=ttu",24.7256613,46.7827674
64,An Nasim Ash Sharqi,"24.7390309, 46.8037645",0,"https://www.google.com/maps/place/An+Nasim+Ash+Sharqi,+Riyadh/@24.7390309,46.8037645,13z/data=!3m1!4b1!4m6!3m5!1s0x3e2faa3d59f9cf8d:0x48a47dd71ebfc54d!8m2!3d24.7426943!4d46.8407774!16s%2Fg%2F1tdvycg_?entry=ttu",24.7390309,46.8037645
66,Ar Rimayah,"24.7703442, 46.832442",0,"https://www.google.com/maps/place/Ar+Rimayah,+Riyadh/@24.7703442,46.832442,13z/data=!3m1!4b1!4m6!3m5!1s0x3e2fabadcd939bcf:0x529c445935e45545!8m2!3d24.766369!4d46.8653521!16s%2Fg%2F1thkvr9j?entry=ttu",24.7703442,46.832442
68,Ar Rawabi,"24.6960639, 46.7709625",0,"https://www.google.com/maps/place/Ar+Rawabi,+Riyadh/@24.6960639,46.7709625,14z/data=!3m1!4b1!4m6!3m5!1s0x3e2f07241d57dad1:0xcf0d859cfb84ff45!8m2!3d24.6957529!4d46.7927788!16s%2Fg%2F1tg7_yw5?entry=ttu",24.6960639,46.7709625
69,حي السعادة,"24.6855992, 46.834467",MRMR+R2G، السعادة، الرياض 14256،,"https://www.google.com/maps/place/%D8%AD%D9%8A+%D8%A7%D9%84%D8%B3%D8%B9%D8%A7%D8%AF%D8%A9%E2%80%AD/@24.6855992,46.834467,21z/data=!4m10!1m2!2m1!1zINit2Yog2KfZhNiz2LnYp9iv2KkgLCBSaXlhZGg!3m6!1s0x3e2fa9df6bc38ce9:0x7638f9b1d4224179!8m2!3d24.6855992!4d46.8347647!15sChzYrdmKINin2YTYs9i52KfYr9ipICwgUml5YWRoWhwiGtit2Yog2KfZhNiz2LnYp9iv2Kkgcml5YWRokgESYXBhcnRtZW50X2J1aWxkaW5nmgEkQ2hkRFNVaE5NRzluUzBWSlEwRm5TVU5zZVhCdGNHaG5SUkFC4AEA!16s%2Fg%2F11t7zg1lq7?entry=ttu",24.6855992,46.834467
71,Khashm Al Aan,"24.6657763, 46.8491465",0,"https://www.google.com/maps/place/Khashm+Al+Aan,+Riyadh/@24.6657763,46.8491465,12z/data=!3m1!4b1!4m6!3m5!1s0x3e2fa8fc4464e58f:0xa4684e96e8ab08b6!8m2!3d24.6687903!4d46.9255944!16s%2Fg%2F1tmk6zpq?entry=ttu",24.6657763,46.8491465
73,As Sulay,"24.6540314, 46.8152561",0,"https://www.google.com/maps/place/As+Sulay,+Riyadh/@24.6540314,46.8152561,13z/data=!3m1!4b1!4m6!3m5!1s0x3e2fa80938a44ddf:0xc6df1d7882486c4a!8m2!3d24.6571726!4d46.8344515!16s%2Fg%2F1tdytvg1?entry=ttu",24.6540314,46.8152561
75,Al Birriyyah,"24.5479287, 46.8974906",0,"https://www.google.com/maps/place/Al+Birriyyah,+Riyadh/@24.5479287,46.8974906,13z/data=!3m1!4b1!4m6!3m5!1s0x3e2fa2beaafd6bd7:0x2156e42af7c04183!8m2!3d24.5772561!4d46.8969163!16s%2Fg%2F1hfc1bp1q?entry=ttu",24.5479287,46.8974906
77,Al Nasiriyyah,"24.6518925, 46.6711015",0,"https://www.google.com/maps/place/Al+Nasiriyyah,+Riyadh/@24.6518925,46.6711015,15z/data=!3m1!4b1!4m6!3m5!1s0x3e2f04b810f1797f:0xee987287e3a9b07a!8m2!3d24.6541241!4d46.6794361!16s%2Fg%2F1wh4db66?entry=ttu",24.6518925,46.6711015
79,Irqah,"24.6889803, 46.5079581",0,"https://www.google.com/maps/place/Irqah,+Riyadh/@24.6889803,46.5079581,13z/data=!3m1!4b1!4m6!3m5!1s0x3e2f1e73d0cbb057:0x418abd951a58884a!8m2!3d24.6872441!4d46.5823725!16s%2Fm%2F0dd8jyz?entry=ttu",24.6889803,46.5079581
80,حي ظهرة لبن,"24.6532569, 46.5766714","حي ظهرة لبن، 3105 شارع الطائف، RDLG3105، 9084, Riyadh 12564","https://www.google.com/maps/place/%D8%AD%D9%8A+%D8%B8%D9%87%D8%B1%D8%A9+%D9%84%D8%A8%D9%86%E2%80%AD/@24.6532569,46.5766714,21z/data=!4m10!1m2!2m1!1zINit2Yog2LjZh9ix2Kkg2YTYqNmGICwgUml5YWRo!3m6!1s0x3e2f1f32c16fc863:0x5400f501d6fb8bff!8m2!3d24.6532569!4d46.5769691!15sCh3YrdmKINi42YfYsdipINmE2KjZhiAsIFJpeWFkaFodIhvYrdmKINi42YfYsdipINmE2KjZhiByaXlhZGiSAQZtYXJrZXSaASNDaFpEU1VoTk1HOW5TMFZKUTBGblNVTlVORzh5ZUZkUkVBReABAA!16s%2Fg%2F11kk4c0f80?entry=ttu",24.6532569,46.5766714
82,Tuwik,"24.4747984, 46.2830362",0,"https://www.google.com/maps/place/Tuwik,+Al-Muzahmiya/@24.4747984,46.2830362,15z/data=!3m1!4b1!4m6!3m5!1s0x3e2f2e0cb5edff21:0x60c021a603cf9798!8m2!3d24.4725109!4d46.2877854!16s%2Fg%2F11bbswx1cq?entry=ttu",24.4747984,46.2830362
84,Dirab,"24.5103782, 46.5780372",0,"https://www.google.com/maps/place/Dirab,+Riyadh/@24.5103782,46.5780372,13z/data=!3m1!4b1!4m6!3m5!1s0x3e2f117d1bbe7e2b:0x8c3465d8924d4b7!8m2!3d24.4898823!4d46.6204606!16s%2Fg%2F1tdqfyqz?entry=ttu",24.5103782,46.5780372
86,Dhahrat Al Badi'ah,"24.5971107, 46.633755",0,"https://www.google.com/maps/place/Dhahrat+Al+Badi'ah,+Riyadh/@24.5971107,46.633755,14z/data=!3m1!4b1!4m6!3m5!1s0x3e2f1a960604a757:0xa0aa3ff0266ab5eb!8m2!3d24.5983243!4d46.6455287!16s%2Fg%2F1hc6vdfkt?entry=ttu",24.5971107,46.633755
88,As Suwaidi,"24.5907646, 46.6586685",0,"https://www.google.com/maps/place/As+Suwaidi,+Riyadh/@24.5907646,46.6586685,14z/data=!3m1!4b1!4m6!3m5!1s0x3e2f1aaa65e3fce1:0xbcd3e546422102b4!8m2!3d24.5903985!4d46.6726953!16s%2Fm%2F09g8gtz?entry=ttu",24.5907646,46.6586685
89,Um Al Hamam Park,"24.7004556, 46.6480701","8850 Al Awhadi, 3838, Umm Al Hamam Al Gharbi, Riyadh 12328","https://www.google.com/maps/place/Um+Al+Hamam+Park/@24.7004556,46.6480701,21z/data=!4m10!1m2!2m1!1zINit2Yog2KPZhSDYp9mE2K3Zhdin2YUg2KfZhNi62LHYqNmKICwgUml5YWRo!3m6!1s0x3e2f1d1ede8e13fd:0xd86037fd48841e48!8m2!3d24.7004556!4d46.6483678!15sCizYrdmKINij2YUg2KfZhNit2YXYp9mFINin2YTYutix2KjZiiAsIFJpeWFkaFosIirYrdmKINij2YUg2KfZhNit2YXYp9mFINin2YTYutix2KjZiiByaXlhZGiSAQRwYXJrmgEkQ2hkRFNVaE5NRzluUzBWSlEwRm5TVVJFTjJOdVdYQkJSUkFC4AEA!16s%2Fg%2F1td79mn7?entry=ttu",24.7004556,46.6480701
91,Shubra,"24.5788324, 46.6474562",0,"https://www.google.com/maps/place/Shubra,+Riyadh/@24.5788324,46.6474562,14z/data=!3m1!4b1!4m6!3m5!1s0x3e2f101be81f933f:0x5adea7b3bca4a9f7!8m2!3d24.5739032!4d46.6635897!16s%2Fg%2F1tfjd00p?entry=ttu",24.5788324,46.6474562
93,حي ضاحية نمار,"24.510868, 46.5233731",0,"https://www.google.com/maps/place/%D8%AD%D9%8A+%D8%B6%D8%A7%D8%AD%D9%8A%D8%A9+%D9%86%D9%85%D8%A7%D8%B1%E2%80%AD/@24.510868,46.5233731,17z/data=!3m1!4b1!4m6!3m5!1s0x3e2f17fe3ba88f79:0xa56a1e75e4411357!8m2!3d24.510868!4d46.525948!16s%2Fg%2F11tcl0ts3r?entry=ttu",24.510868,46.5233731
95,مركز صحي العريجاء الاوسط,"24.60218, 46.6254951",0,"https://www.google.com/maps/place/%D9%85%D8%B1%D9%83%D8%B2+%D8%B5%D8%AD%D9%8A+%D8%A7%D9%84%D8%B9%D8%B1%D9%8A%D8%AC%D8%A7%D8%A1+%D8%A7%D9%84%D8%A7%D9%88%D8%B3%D8%B7%E2%80%AD/@24.60218,46.6254951,17z/data=!3m1!4b1!4m6!3m5!1s0x3e2f1a5996f18845:0x8877e674a0aeb696!8m2!3d24.60218!4d46.62807!16s%2Fg%2F11c1pkpxhl?entry=ttu",24.60218,46.6254951
97,Dhahrat Al Badi'ah,"24.5971107, 46.633755",0,"https://www.google.com/maps/place/Dhahrat+Al+Badi'ah,+Riyadh/@24.5971107,46.633755,14z/data=!3m1!4b1!4m6!3m5!1s0x3e2f1a960604a757:0xa0aa3ff0266ab5eb!8m2!3d24.5983243!4d46.6455287!16s%2Fg%2F1hc6vdfkt?entry=ttu",24.5971107,46.633755
98,حي الرفيعة,"24.648838, 46.6668318","الرفيعة،، 4349 طريق الأمير فيصل بن فهد بن عبدالعزيز، 8622،, Riyadh 12751،","https://www.google.com/maps/place/%D8%AD%D9%8A+%D8%A7%D9%84%D8%B1%D9%81%D9%8A%D8%B9%D8%A9%E2%80%AD/@24.648838,46.6668318,21z/data=!4m10!1m2!2m1!1zINit2Yog2KfZhNix2YHZiti52KkgLCBSaXlhZGg!3m6!1s0x3e2f1bfe89044e13:0x4e4e8296d624047e!8m2!3d24.648838!4d46.6671295!15sChzYrdmKINin2YTYsdmB2YrYudipICwgUml5YWRoWhwiGtit2Yog2KfZhNix2YHZiti52Kkgcml5YWRokgERYXBhcnRtZW50X2NvbXBsZXiaASRDaGREU1VoTk1HOW5TMFZKUTBGblNVUXRMVFZoUzNSQlJSQULgAQA!16s%2Fg%2F11t7ryr10l?entry=ttu",24.648838,46.6668318
100,As Suwaidi,"24.5907646, 46.6586685",0,"https://www.google.com/maps/place/As+Suwaidi,+Riyadh/@24.5907646,46.6586685,14z/data=!3m1!4b1!4m6!3m5!1s0x3e2f1aaa65e3fce1:0xbcd3e546422102b4!8m2!3d24.5903985!4d46.6726953!16s%2Fm%2F09g8gtz?entry=ttu",24.5907646,46.6586685
102,مركز صحي العريجاء الاوسط,"24.60218, 46.6254951",0,"https://www.google.com/maps/place/%D9%85%D8%B1%D9%83%D8%B2+%D8%B5%D8%AD%D9%8A+%D8%A7%D9%84%D8%B9%D8%B1%D9%8A%D8%AC%D8%A7%D8%A1+%D8%A7%D9%84%D8%A7%D9%88%D8%B3%D8%B7%E2%80%AD/@24.60218,46.6254951,17z/data=!3m1!4b1!4m6!3m5!1s0x3e2f1a5996f18845:0x8877e674a0aeb696!8m2!3d24.60218!4d46.62807!16s%2Fg%2F11c1pkpxhl?entry=ttu",24.60218,46.6254951
104,Ghubairah,"24.6205638, 46.7260836",0,"https://www.google.com/maps/place/Ghubairah,+Riyadh/@24.6205638,46.7260836,15z/data=!3m1!4b1!4m6!3m5!1s0x3e2f05f0f74d39d9:0x3e19828f6fdb53ca!8m2!3d24.6221434!4d46.7386685!16s%2Fg%2F1tmptg58?entry=ttu",24.6205638,46.7260836
106,Al Amal,"24.6457903, 46.7192312",0,"https://www.google.com/maps/place/Al+Amal,+Riyadh/@24.6457903,46.7192312,16z/data=!3m1!4b1!4m6!3m5!1s0x3e2f05b48fca1add:0xc91d25c5df4025dd!8m2!3d24.6423634!4d46.7192278!16s%2Fg%2F1tfzf70t?entry=ttu",24.6457903,46.7192312
107,حي الصناعية,"24.6350516, 46.7371532","JPPP+2XG, Al Kharj Rd، تقاطع،، بلقيس، الصناعية القديمة،, Riyadh 11499","https://www.google.com/maps/place/%D8%AD%D9%8A+%D8%A7%D9%84%D8%B5%D9%86%D8%A7%D8%B9%D9%8A%D8%A9%E2%80%AD/@24.6350516,46.7371532,21z/data=!4m10!1m2!2m1!1zINit2Yog2KfZhNi12YbYp9i52YrYqSAsIFJpeWFkaA!3m6!1s0x3e2f0599fd7ecf1d:0xd311117247d570b6!8m2!3d24.6350516!4d46.7374509!15sCh7YrdmKINin2YTYtdmG2KfYudmK2KkgLCBSaXlhZGiSARFjYXJfYmF0dGVyeV9zdG9yZeABAA!16s%2Fg%2F11jz6kybnw?entry=ttu",24.6350516,46.7371532
109,Jarir,"24.6772501, 46.7404221",0,"https://www.google.com/maps/place/Jarir,+Riyadh/@24.6772501,46.7404221,15z/data=!3m1!4b1!4m6!3m5!1s0x3e2f06a1b435180d:0x7d3ae18b14456a40!8m2!3d24.6781621!4d46.7527865!16s%2Fg%2F1vfn53g9?entry=ttu",24.6772501,46.7404221
111,Al Yamamah,"24.5961728, 46.7055682",0,"https://www.google.com/maps/place/Al+Yamamah,+Riyadh/@24.5961728,46.7055682,15z/data=!3m1!4b1!4m6!3m5!1s0x3e2f0f706738c253:0x324521a2c66eb5c4!8m2!3d24.5940471!4d46.714514!16s%2Fg%2F12xpvhsm5?entry=ttu",24.5961728,46.7055682
113,Aljazirah,"24.0809367, 45.2766519",0,"https://www.google.com/maps/place/Aljazirah,+Al+Quwaiiyah+19257/@24.0809367,45.2766519,15z/data=!3m1!4b1!4m6!3m5!1s0x3e28381ba535087d:0x7889357c8da62ee0!8m2!3d24.0805697!4d45.2875655!16s%2Fg%2F11c58gxggl?entry=ttu",24.0809367,45.2766519
115,Manfuhah,"24.5994684, 46.718162",0,"https://www.google.com/maps/place/Manfuhah,+Riyadh/@24.5994684,46.718162,15z/data=!3m1!4b1!4m6!3m5!1s0x3e2f0f6829d9a3a1:0xb586b4e922cd9a80!8m2!3d24.6007001!4d46.7244456!16s%2Fm%2F02q34zb?entry=ttu",24.5994684,46.718162
117,Al Wizarat,"24.6791496, 46.6926694",0,"https://www.google.com/maps/place/Al+Wizarat,+Riyadh/@24.6791496,46.6926694,14z/data=!3m1!4b1!4m6!3m5!1s0x3e2f047ed9134073:0x5dbb6551a7979f31!8m2!3d24.6743305!4d46.7119237!16s%2Fg%2F1hc6vw28d?entry=ttu",24.6791496,46.6926694
119,Umm Salim,"24.6337716, 46.693374",0,"https://www.google.com/maps/place/Umm+Salim,+Riyadh+12744/@24.6337716,46.693374,16z/data=!3m1!4b1!4m6!3m5!1s0x3e2f051ca0dea23f:0x94bf7e19bbdb02ee!8m2!3d24.6328083!4d46.6986164!16s%2Fg%2F1tql37kz?entry=ttu",24.6337716,46.693374
121,Ad Dirah,"24.6305888, 46.700551",0,"https://www.google.com/maps/place/Ad+Dirah,+Riyadh/@24.6305888,46.700551,15z/data=!3m1!4b1!4m6!3m5!1s0x3e2f05a70e5e9cf3:0x3ed9b9b333c8be42!8m2!3d24.6314812!4d46.7096468!16s%2Fg%2F1v2pnpg9?entry=ttu",24.6305888,46.700551
123,Ad Dhubbat,"24.6799796, 46.7026043",0,"https://www.google.com/maps/place/Ad+Dhubbat,+Riyadh/@24.6799796,46.7026043,14z/data=!3m1!4b1!4m6!3m5!1s0x3e2f0471501e682f:0x429ea88bbac3af91!8m2!3d24.6795232!4d46.7207514!16s%2Fg%2F1tdg67_4?entry=ttu",24.6799796,46.7026043
125,حي الخالدية,"24.6237858, 46.7444642",0,"https://www.google.com/maps/place/%D8%AD%D9%8A+%D8%A7%D9%84%D8%AE%D8%A7%D9%84%D8%AF%D9%8A%D8%A9,+Al+Khalidiyyah,+Riyadh+12874%E2%80%AD/@24.6237858,46.7444642,15z/data=!3m1!4b1!4m6!3m5!1s0x3e2f0603a22552ed:0x1051fb3ba9858059!8m2!3d24.6237866!4d46.754764!16s%2Fg%2F11ksw566zd?entry=ttu",24.6237858,46.7444642
127,جامع حي الملك عبدالعزيز,"24.6976046, 46.7170454",0,"https://www.google.com/maps/place/%D8%AC%D8%A7%D9%85%D8%B9+%D8%AD%D9%8A+%D8%A7%D9%84%D9%85%D9%84%D9%83+%D8%B9%D8%A8%D8%AF%D8%A7%D9%84%D8%B9%D8%B2%D9%8A%D8%B2%E2%80%AD/@24.6976046,46.7170454,17z/data=!3m1!4b1!4m6!3m5!1s0x3e2f035acd2b3017:0xc19d80df2bd6d229!8m2!3d24.6976046!4d46.7196203!16s%2Fg%2F11h3jhj82s?entry=ttu",24.6976046,46.7170454
129,Al Faisaliyyah,"24.634538, 46.7611167",0,"https://www.google.com/maps/place/Al+Faisaliyyah,+Riyadh/@24.634538,46.7611167,14z/data=!3m1!4b1!4m6!3m5!1s0x3e2f062957a26681:0xb053c0d4d163f2e0!8m2!3d24.6369766!4d46.7728034!16s%2Fg%2F11xhd4lkx?entry=ttu",24.634538,46.7611167
131,Al Hada,"24.4553471, 46.2595647",0,"https://www.google.com/maps/place/Al+Hada,+Al-Muzahmiya+19651/@24.4553471,46.2595647,15z/data=!3m1!4b1!4m6!3m5!1s0x3e2f2df26cedb16b:0xc69af2cd7decf0d7!8m2!3d24.4528506!4d46.2709702!16s%2Fg%2F1q6452fnh?entry=ttu",24.4553471,46.2595647
133,Mikal,"24.6230551, 46.7096856",0,"https://www.google.com/maps/place/Mikal,+Riyadh+12652/@24.6230551,46.7096856,16z/data=!3m1!4b1!4m6!3m5!1s0x3e2f0598dbe14847:0xf40d5528aff8416f!8m2!3d24.6213095!4d46.7150694!16s%2Fg%2F11g6rkqq57?entry=ttu",24.6230551,46.7096856
135,As Salhiyah,"24.6343203, 46.7289191",0,"https://www.google.com/maps/place/As+Salhiyah,+Riyadh+12662/@24.6343203,46.7289191,16z/data=!3m1!4b1!4m6!3m5!1s0x3e2f05c232ba81ab:0xd5b4d1fa22591e39!8m2!3d24.6333989!4d46.7331081!16s%2Fg%2F11clzgyh55?entry=ttu",24.6343203,46.7289191
137,Al Malaz,"24.664643, 46.7147777",0,"https://www.google.com/maps/place/Al+Malaz,+Riyadh/@24.664643,46.7147777,14z/data=!3m1!4b1!4m6!3m5!1s0x3e2f0424ff2e530f:0x36529ba249766c8f!8m2!3d24.6624446!4d46.7287761!16s%2Fg%2F1tf7w5nl?entry=ttu",24.664643,46.7147777
139,Mikal,"24.6230551, 46.7096856",0,"https://www.google.com/maps/place/Mikal,+Riyadh+12652/@24.6230551,46.7096856,16z/data=!3m1!4b1!4m6!3m5!1s0x3e2f0598dbe14847:0xf40d5528aff8416f!8m2!3d24.6213095!4d46.7150694!16s%2Fg%2F11g6rkqq57?entry=ttu",24.6230551,46.7096856
141,Al Faruq,"24.6537991, 46.7527437",0,"https://www.google.com/maps/place/Al+Faruq,+Riyadh/@24.6537991,46.7527437,14z/data=!3m1!4b1!4m6!3m5!1s0x3e2f0644ed2cc7cd:0xd0ef5d4d4bfa0c87!8m2!3d24.6501895!4d46.7725722!16s%2Fg%2F1tjx_zf7?entry=ttu",24.6537991,46.7527437
142,حي المرقباا,"24.6327822, 46.718102",2350 القاع البارد، المرقب، الرياض 12645 6298،,"https://www.google.com/maps/place/%D8%AD%D9%8A+%D8%A7%D9%84%D9%85%D8%B1%D9%82%D8%A8%D8%A7%D8%A7%E2%80%AD/@24.6327822,46.718102,21z/data=!4m10!1m2!2m1!1zINit2Yog2KfZhNmF2LHZgtioICwgUml5YWRo!3m6!1s0x3e2f05a1ed1c2dbf:0xcda024db7c9e47ec!8m2!3d24.6327822!4d46.7183997!15sChrYrdmKINin2YTZhdix2YLYqCAsIFJpeWFkaJIBEWFwYXJ0bWVudF9jb21wbGV44AEA!16s%2Fg%2F11ptz9zqs3?entry=ttu",24.6327822,46.718102
144,Thulaim,"24.6414922, 46.7220727",0,"https://www.google.com/maps/place/Thulaim,+Riyadh/@24.6414922,46.7220727,16z/data=!3m1!4b1!4m6!3m5!1s0x3e2f05b7b4570a7f:0x40cd83f2bf5844cc!8m2!3d24.6412933!4d46.729076!16s%2Fg%2F1vmq_v_8?entry=ttu",24.6414922,46.7220727
146,Al Falah,"24.7971265, 46.6989112",0,"https://www.google.com/maps/place/Al+Falah,+Riyadh/@24.7971265,46.6989112,15z/data=!3m1!4b1!4m6!3m5!1s0x3e2efc557fdcdeb7:0x9b901e195be846f1!8m2!3d24.7959761!4d46.710109!16s%2Fg%2F11c6zl15cg?entry=ttu",24.7971265,46.6989112
148,Al Wadi,"24.7894464, 46.6809594",0,"https://www.google.com/maps/place/Al+Wadi,+Riyadh+13313/@24.7894464,46.6809594,15z/data=!3m1!4b1!4m6!3m5!1s0x3e2efce03f601d17:0xe8be50f226a2315f!8m2!3d24.7904969!4d46.6918862!16s%2Fg%2F1ttdwy11?entry=ttu",24.7894464,46.6809594
150,An Nada,"24.805828, 46.6726775",0,"https://www.google.com/maps/place/An+Nada,+Riyadh/@24.805828,46.6726775,15z/data=!3m1!4b1!4m6!3m5!1s0x3e2efcb8f3fea55b:0x5992c4d7f102ba2f!8m2!3d24.8056733!4d46.684371!16s%2Fg%2F1vyxgwx0?entry=ttu",24.805828,46.6726775
152,Ar Rabi,"24.7945381, 46.6400312",0,"https://www.google.com/maps/place/Ar+Rabi,+Riyadh/@24.7945381,46.6400312,14z/data=!3m1!4b1!4m6!3m5!1s0x3e2ee3382c06d8d9:0x24ed127b5c901c1a!8m2!3d24.7938183!4d46.6563509!16s%2Fg%2F1vd6_t6f?entry=ttu",24.7945381,46.6400312
154,An Nafal,"24.7818657, 46.6630526",0,"https://www.google.com/maps/place/An+Nafal,+Riyadh+13312/@24.7818657,46.6630526,15z/data=!3m1!4b1!4m6!3m5!1s0x3e2efcd5875b351f:0xad6dbfa04c153419!8m2!3d24.783043!4d46.6738201!16s%2Fg%2F1tgllck5?entry=ttu",24.7818657,46.6630526
155,Al-Ghadeer Grand Mosque,"24.7734256, 46.6452563","جامع حي الغدير, Al Ghadir, Riyadh 13311","https://www.google.com/maps/place/Al-Ghadeer+Grand+Mosque/@24.7734256,46.6452563,21z/data=!4m15!1m8!3m7!1s0x3e2ee31dc6966d49:0xb307c9614e53645d!2z2KzYp9mF2Lkg2K3ZiiDYp9mE2LrYr9mK2LEsIEFsIEdoYWRpciwgUml5YWRoIDEzMzEx!3b1!8m2!3d24.7734256!4d46.6454172!16s%2Fg%2F1v8y2j17!3m5!1s0x3e2ee31dc6960447:0x70ab4bf9683d6deb!8m2!3d24.7733214!4d46.6453133!16s%2Fg%2F11x9s27_9?entry=ttu",24.7734256,46.6452563
157,Al Malqa,"24.8008081, 46.5566025",0,"https://www.google.com/maps/place/Al+Malqa,+Riyadh/@24.8008081,46.5566025,13z/data=!3m1!4b1!4m6!3m5!1s0x3e2ee40365c642ed:0x6c5d614a74dfde32!8m2!3d24.8142533!4d46.6106897!16s%2Fg%2F11g6rks0w2?entry=ttu",24.8008081,46.5566025
158,حي العارض,"24.8620928, 46.6322373","VJ6M+R2M, Al Aarid, Riyadh 13335","https://www.google.com/maps/place/%D8%AD%D9%8A+%D8%A7%D9%84%D8%B9%D8%A7%D8%B1%D8%B6%E2%80%AD/@24.8620928,46.6322373,21z/data=!4m10!1m2!2m1!1zINit2Yog2KfZhNi52KfYsdi2ICwgUml5YWRo!3m6!1s0x3e2ee57b61ce40d7:0x5612e819d539ff2a!8m2!3d24.8620928!4d46.632535!15sChrYrdmKINin2YTYudin2LHYtiAsIFJpeWFkaJIBE2hvdXNpbmdfZGV2ZWxvcG1lbnTgAQA!16s%2Fg%2F11tmwf16hw?entry=ttu",24.8620928,46.6322373
159,الرياض حي القيروان,"24.8318857, 46.6010099","7222 بدر التمام, Al Qirawan, Riyadh 13531","https://www.google.com/maps/place/%D8%A7%D9%84%D8%B1%D9%8A%D8%A7%D8%B6+%D8%AD%D9%8A+%D8%A7%D9%84%D9%82%D9%8A%D8%B1%D9%88%D8%A7%D9%86%E2%80%AD/@24.8318857,46.6010099,21z/data=!4m10!1m2!2m1!1zINit2Yog2KfZhNmC2YrYsdmI2KfZhiAsIFJpeWFkaA!3m6!1s0x3e2ee569a52d28bd:0x54f0b9cbdbc1fb04!8m2!3d24.8318857!4d46.6013076!15sCh7YrdmKINin2YTZgtmK2LHZiNin2YYgLCBSaXlhZGiSAQZtb3NxdWXgAQA!16s%2Fg%2F11txhpvmzb?entry=ttu",24.8318857,46.6010099
161,Banban,"24.992643, 46.4609621",0,"https://www.google.com/maps/place/Banban,+Riyadh/@24.992643,46.4609621,12z/data=!3m1!4b1!4m6!3m5!1s0x3e2eeb3f8e1a856d:0x85ad375eccb7c29f!8m2!3d25.0284581!4d46.5795603!16s%2Fg%2F1th08xkf?entry=ttu",24.992643,46.4609621
163,مخطط الخير - الأمراء,"25.0303606, 46.447556",0,"https://www.google.com/maps/place/%D9%85%D8%AE%D8%B7%D8%B7+%D8%A7%D9%84%D8%AE%D9%8A%D8%B1+-+%D8%A7%D9%84%D8%A3%D9%85%D8%B1%D8%A7%D8%A1%D8%8C+%D8%A7%D9%84%D8%AE%D9%8A%D8%B1,+Riyadh+13577%E2%80%AD/@25.0303606,46.447556,16z/data=!3m1!4b1!4m6!3m5!1s0x3e2ebeb95f6eec33:0xd7c8c6691b9e9aed!8m2!3d25.0299588!4d46.4531247!16s%2Fg%2F11b6gfkt33?entry=ttu",25.0303606,46.447556
165,King Khalid International Airport,"24.922132, 46.5350963",0,"https://www.google.com/maps/place/King+Khalid+International+Airport,+Riyadh/@24.922132,46.5350963,11z/data=!3m1!4b1!4m6!3m5!1s0x3e2efbd5b82c0a65:0x388d918d52b877c9!8m2!3d24.9454935!4d46.7089092!16s%2Fg%2F1vp6ynrz?entry=ttu",24.922132,46.5350963
166,Aqiq Park,"24.7799353, 46.6323956","7109 Qanat Al Soueys, 4013, Al Aqiq, Riyadh 13515","https://www.google.com/maps/place/Aqiq+Park/@24.7799353,46.6323956,21z/data=!4m10!1m2!2m1!1zINit2Yog2KfZhNi52YLZitmCICwgUml5YWRo!3m6!1s0x3e2ee309c44981e3:0xb97fa7c58191625f!8m2!3d24.7799353!4d46.6326933!15sChrYrdmKINin2YTYudmC2YrZgiAsIFJpeWFkaFoaIhjYrdmKINin2YTYudmC2YrZgiByaXlhZGiSAQRwYXJrmgEjQ2haRFNVaE5NRzluUzBWSlEwRm5TVVJwTW5NemJHWlJFQUXgAQA!16s%2Fg%2F11c1tjty_3?entry=ttu",24.7799353,46.6323956
167,حي الياسمين الرياض,"24.7938183, 46.6560532","QMV4+GGH, Ar Rabi, Riyadh 13315","https://www.google.com/maps/place/%D8%AD%D9%8A+%D8%A7%D9%84%D9%8A%D8%A7%D8%B3%D9%85%D9%8A%D9%86+%D8%A7%D9%84%D8%B1%D9%8A%D8%A7%D8%B6%E2%80%AD/@24.7938183,46.6560532,21z/data=!4m10!1m2!2m1!1zINit2Yog2KfZhNmK2KfYs9mF2YrZhiAsIFJpeWFkaA!3m6!1s0x3e2ee3528842e695:0x2be4ee37e84638dc!8m2!3d24.7938183!4d46.6563509!15sCh7YrdmKINin2YTZitin2LPZhdmK2YYgLCBSaXlhZGhaHiIc2K3ZiiDYp9mE2YrYp9iz2YXZitmGIHJpeWFkaJIBD3dlZGRpbmdfcGxhbm5lcpoBJENoZERTVWhOTUc5blMwVkpRMEZuU1VOa1h6WjZWbWQzUlJBQuABAA!16s%2Fg%2F11v3qnkmh4?entry=ttu",24.7938183,46.6560532
169,Ar Rabi,"24.7945381, 46.6400312",0,"https://www.google.com/maps/place/Ar+Rabi,+Riyadh/@24.7945381,46.6400312,14z/data=!3m1!4b1!4m6!3m5!1s0x3e2ee3382c06d8d9:0x24ed127b5c901c1a!8m2!3d24.7938183!4d46.6563509!16s%2Fg%2F1vd6_t6f?entry=ttu",24.7945381,46.6400312
170,Al-Ghadeer Grand Mosque,"24.7734256, 46.6452563","جامع حي الغدير, Al Ghadir, Riyadh 13311","https://www.google.com/maps/place/Al-Ghadeer+Grand+Mosque/@24.7734256,46.6452563,21z/data=!4m15!1m8!3m7!1s0x3e2ee31dc6966d49:0xb307c9614e53645d!2z2KzYp9mF2Lkg2K3ZiiDYp9mE2LrYr9mK2LEsIEFsIEdoYWRpciwgUml5YWRoIDEzMzEx!3b1!8m2!3d24.7734256!4d46.6454172!16s%2Fg%2F1v8y2j17!3m5!1s0x3e2ee31dc6960447:0x70ab4bf9683d6deb!8m2!3d24.7733214!4d46.6453133!16s%2Fg%2F11x9s27_9?entry=ttu",24.7734256,46.6452563
172,An Nafal,"24.7818657, 46.6630526",0,"https://www.google.com/maps/place/An+Nafal,+Riyadh+13312/@24.7818657,46.6630526,15z/data=!3m1!4b1!4m6!3m5!1s0x3e2efcd5875b351f:0xad6dbfa04c153419!8m2!3d24.783043!4d46.6738201!16s%2Fg%2F1tgllck5?entry=ttu",24.7818657,46.6630526
174,Al Wadi,"24.7894464, 46.6809594",0,"https://www.google.com/maps/place/Al+Wadi,+Riyadh+13313/@24.7894464,46.6809594,15z/data=!3m1!4b1!4m6!3m5!1s0x3e2efce03f601d17:0xe8be50f226a2315f!8m2!3d24.7904969!4d46.6918862!16s%2Fg%2F1ttdwy11?entry=ttu",24.7894464,46.6809594
176,An Nada,"24.805828, 46.6726775",0,"https://www.google.com/maps/place/An+Nada,+Riyadh/@24.805828,46.6726775,15z/data=!3m1!4b1!4m6!3m5!1s0x3e2efcb8f3fea55b:0x5992c4d7f102ba2f!8m2!3d24.8056733!4d46.684371!16s%2Fg%2F1vyxgwx0?entry=ttu",24.805828,46.6726775
178,Al Izdihar,"24.7806701, 46.7072056",0,"https://www.google.com/maps/place/Al+Izdihar,+Riyadh/@24.7806701,46.7072056,15z/data=!3m1!4b1!4m6!3m5!1s0x3e2efda2e71a4331:0xf746e0fda2277c89!8m2!3d24.7802859!4d46.7189184!16s%2Fg%2F1tfgh8_2?entry=ttu",24.7806701,46.7072056
180,Al Izdihar,"24.7806701, 46.7072056",0,"https://www.google.com/maps/place/Al+Izdihar,+Riyadh/@24.7806701,46.7072056,15z/data=!3m1!4b1!4m6!3m5!1s0x3e2efda2e71a4331:0xf746e0fda2277c89!8m2!3d24.7802859!4d46.7189184!16s%2Fg%2F1tfgh8_2?entry=ttu",24.7806701,46.7072056
182,Al Mughrizat,"24.7640849, 46.7154823",0,"https://www.google.com/maps/place/Al+Mughrizat,+Riyadh/@24.7640849,46.7154823,15z/data=!3m1!4b1!4m6!3m5!1s0x3e2efd8a5c083207:0xbe0228bce24a2f62!8m2!3d24.7625344!4d46.7253928!16s%2Fg%2F1tfg1k9z?entry=ttu",24.7640849,46.7154823
184,حي المحمدية,"24.443223, 46.2613679",0,"https://www.google.com/maps/place/%D8%AD%D9%8A+%D8%A7%D9%84%D9%85%D8%AD%D9%85%D8%AF%D9%8A%D8%A9,+Al-Muzahmiya+19643%E2%80%AD/@24.443223,46.2613679,16z/data=!3m1!4b1!4m6!3m5!1s0x3e2f320ad3785645:0x88c72d61aa41ccaf!8m2!3d24.4438868!4d46.2689858!16s%2Fg%2F1q6jcm1mv?entry=ttu",24.443223,46.2613679
186,Ar Rahmaniyyah,"24.716157, 46.6491716",0,"https://www.google.com/maps/place/Ar+Rahmaniyyah,+Riyadh/@24.716157,46.6491716,15z/data=!3m1!4b1!4m6!3m5!1s0x3e2f1d3995f64833:0x9737fbba05def0d8!8m2!3d24.7170147!4d46.6594217!16s%2Fg%2F11g6rkk_s_?entry=ttu",24.716157,46.6491716
188,King Salman Neighborhood,"24.736666, 46.6849232",0,"https://www.google.com/maps/place/King+Salman+Neighborhood,+Riyadh/@24.736666,46.6849232,14z/data=!3m1!4b1!4m6!3m5!1s0x3e2f026770985bb5:0x764ab1115c8b9ee8!8m2!3d24.7409561!4d46.7168307!16s%2Fg%2F11sttr9v7m?entry=ttu",24.736666,46.6849232
190,King Salman Neighborhood,"24.736666, 46.6849232",0,"https://www.google.com/maps/place/King+Salman+Neighborhood,+Riyadh/@24.736666,46.6849232,14z/data=!3m1!4b1!4m6!3m5!1s0x3e2f026770985bb5:0x764ab1115c8b9ee8!8m2!3d24.7409561!4d46.7168307!16s%2Fg%2F11sttr9v7m?entry=ttu",24.736666,46.6849232
192,King Abdullah Dt.,"24.731972, 46.7002967",0,"https://www.google.com/maps/place/King+Abdullah+Dt.,+Riyadh/@24.731972,46.7002967,13z/data=!3m1!4b1!4m6!3m5!1s0x3e2f022cf61aa687:0x43f05ad29638efb0!8m2!3d24.7340702!4d46.7368429!16s%2Fg%2F1tj9rtn7?entry=ttu",24.731972,46.7002967
